{
"type": "FeatureCollection",
"name": "hail_points_KS",
"crs": { "type": "name", "properties": { "name": "urn:ogc:def:crs:EPSG::4269" } },
"features": [
{ "type": "Feature", "properties": { "Time": 2238, "Size": 100, "Location": "1 S Arkansas City", "County": "Cowley", "State": "KS", "Lat": 37.05, "Lon": -97.04, "Comments": "KAKE storm spotter reported a few quarter size hail stones in south part of Arkansas City. (ICT)" }, "geometry": { "type": "Point", "coordinates": [ -97.04, 37.05 ] } }
]
}
